[{"OBJECT_NAME":"OCO 2","OBJECT_ID":"2014-035A","EPOCH":"2026-03-06T06:55:01.443360","MEAN_MOTION":14.57088392,"ECCENTRICITY":0.0001192,"INCLINATION":98.2094,"RA_OF_ASC_NODE":8.1845,"ARG_OF_PERICENTER":91.7097,"MEAN_ANOMALY":268.4238,"EPHEMERIS_TYPE":0,"CLASSIFICATION_TYPE":"U","NORAD_CAT_ID":40059,"ELEMENT_SET_NO":999,"REV_AT_EPOCH":62106,"BSTAR":0.00019169445,"MEAN_MOTION_DOT":8.18e-6,"MEAN_MOTION_DDOT":0},{"OBJECT_NAME":"BRITE-PL2 (HEWELIUSZ)","OBJECT_ID":"2014-049B","EPOCH":"2026-03-06T06:11:09.047040","MEAN_MOTION":14.94161298,"ECCENTRICITY":0.00156086,"INCLINATION":97.8984,"RA_OF_ASC_NODE":176.5682,"ARG_OF_PERICENTER":91.8548,"MEAN_ANOMALY":268.4459,"EPHEMERIS_TYPE":0,"CLASSIFICATION_TYPE":"U","NORAD_CAT_ID":40119,"ELEMENT_SET_NO":999,"REV_AT_EPOCH":62607,"BSTAR":0.0003643545,"MEAN_MOTION_DOT":3.85e-5,"MEAN_MOTION_DDOT":0},{"OBJECT_NAME":"MMS 1","OBJECT_ID":"2015-011A","EPOCH":"2026-03-06T08:00:01.000224","MEAN_MOTION":0.28337049,"ECCENTRICITY":0.84164377,"INCLINATION":70.7905,"RA_OF_ASC_NODE":350.201,"ARG_OF_PERICENTER":165.2537,"MEAN_ANOMALY":247.4435,"EPHEMERIS_TYPE":0,"CLASSIFICATION_TYPE":"U","NORAD_CAT_ID":40482,"ELEMENT_SET_NO":999,"REV_AT_EPOCH":133,"BSTAR":0,"MEAN_MOTION_DOT":-1.909e-5,"MEAN_MOTION_DDOT":0},{"OBJECT_NAME":"MMS 2","OBJECT_ID":"2015-011B","EPOCH":"2026-03-06T08:00:01.000224","MEAN_MOTION":0.28337051,"ECCENTRICITY":0.84171679,"INCLINATION":70.7908,"RA_OF_ASC_NODE":350.2031,"ARG_OF_PERICENTER":165.2598,"MEAN_ANOMALY":247.4271,"EPHEMERIS_TYPE":0,"CLASSIFICATION_TYPE":"U","NORAD_CAT_ID":40483,"ELEMENT_SET_NO":999,"REV_AT_EPOCH":133,"BSTAR":0,"MEAN_MOTION_DOT":-1.909e-5,"MEAN_MOTION_DDOT":0},{"OBJECT_NAME":"MMS 3","OBJECT_ID":"2015-011C","EPOCH":"2026-03-06T08:00:01.000224","MEAN_MOTION":0.28337022,"ECCENTRICITY":0.8416452,"INCLINATION":70.7931,"RA_OF_ASC_NODE":350.2078,"ARG_OF_PERICENTER":165.254,"MEAN_ANOMALY":247.4355,"EPHEMERIS_TYPE":0,"CLASSIFICATION_TYPE":"U","NORAD_CAT_ID":40484,"ELEMENT_SET_NO":999,"REV_AT_EPOCH":133,"BSTAR":0,"MEAN_MOTION_DOT":-1.909e-5,"MEAN_MOTION_DDOT":0},{"OBJECT_NAME":"MMS 4","OBJECT_ID":"2015-011D","EPOCH":"2026-03-06T08:00:01.000224","MEAN_MOTION":0.2833702,"ECCENTRICITY":0.84159536,"INCLINATION":70.7912,"RA_OF_ASC_NODE":350.2029,"ARG_OF_PERICENTER":165.2613,"MEAN_ANOMALY":247.4212,"EPHEMERIS_TYPE":0,"CLASSIFICATION_TYPE":"U","NORAD_CAT_ID":40485,"ELEMENT_SET_NO":999,"REV_AT_EPOCH":133,"BSTAR":0,"MEAN_MOTION_DOT":-1.908e-5,"MEAN_MOTION_DDOT":0},{"OBJECT_NAME":"ASTROSAT","OBJECT_ID":"2015-052A","EPOCH":"2026-03-05T22:54:14.747904","MEAN_MOTION":14.82285248,"ECCENTRICITY":0.00081112,"INCLINATION":5.9957,"RA_OF_ASC_NODE":178.3166,"ARG_OF_PERICENTER":356.4882,"MEAN_ANOMALY":3.5189,"EPHEMERIS_TYPE":0,"CLASSIFICATION_TYPE":"U","NORAD_CAT_ID":40930,"ELEMENT_SET_NO":999,"REV_AT_EPOCH":56448,"BSTAR":0.00020124452,"MEAN_MOTION_DOT":2.317e-5,"MEAN_MOTION_DDOT":0},{"OBJECT_NAME":"DAMPE","OBJECT_ID":"2015-078A","EPOCH":"2026-03-06T06:28:34.601952","MEAN_MOTION":15.30486777,"ECCENTRICITY":0.00138789,"INCLINATION":97.4579,"RA_OF_ASC_NODE":70.2428,"ARG_OF_PERICENTER":81.8694,"MEAN_ANOMALY":278.412,"EPHEMERIS_TYPE":0,"CLASSIFICATION_TYPE":"U","NORAD_CAT_ID":41173,"ELEMENT_SET_NO":999,"REV_AT_EPOCH":56880,"BSTAR":0.00010618299,"MEAN_MOTION_DOT":3.06e-5,"MEAN_MOTION_DDOT":0},{"OBJECT_NAME":"PISAT","OBJECT_ID":"2016-059B","EPOCH":"2026-03-06T00:14:41.584128","MEAN_MOTION":14.68761988,"ECCENTRICITY":0.00292486,"INCLINATION":97.819,"RA_OF_ASC_NODE":69.9116,"ARG_OF_PERICENTER":172.3554,"MEAN_ANOMALY":187.8104,"EPHEMERIS_TYPE":0,"CLASSIFICATION_TYPE":"U","NORAD_CAT_ID":41784,"ELEMENT_SET_NO":999,"REV_AT_EPOCH":50459,"BSTAR":0.00023709805,"MEAN_MOTION_DOT":1.344e-5,"MEAN_MOTION_DDOT":0},{"OBJECT_NAME":"HXMT (HUIYAN)","OBJECT_ID":"2017-034A","EPOCH":"2026-03-06T06:56:07.904832","MEAN_MOTION":15.17406206,"ECCENTRICITY":0.00325599,"INCLINATION":43.0152,"RA_OF_ASC_NODE":35.5784,"ARG_OF_PERICENTER":215.2219,"MEAN_ANOMALY":144.6477,"EPHEMERIS_TYPE":0,"CLASSIFICATION_TYPE":"U","NORAD_CAT_ID":42758,"ELEMENT_SET_NO":999,"REV_AT_EPOCH":48202,"BSTAR":0.00034989992,"MEAN_MOTION_DOT":6.983e-5,"MEAN_MOTION_DDOT":0},{"OBJECT_NAME":"FLYING LAPTOP","OBJECT_ID":"2017-042G","EPOCH":"2026-03-06T07:26:55.525632","MEAN_MOTION":15.00488681,"ECCENTRICITY":0.00188324,"INCLINATION":97.4264,"RA_OF_ASC_NODE":225.1346,"ARG_OF_PERICENTER":106.3478,"MEAN_ANOMALY":253.9819,"EPHEMERIS_TYPE":0,"CLASSIFICATION_TYPE":"U","NORAD_CAT_ID":42831,"ELEMENT_SET_NO":999,"REV_AT_EPOCH":47102,"BSTAR":0.00027262487,"MEAN_MOTION_DOT":3.389e-5,"MEAN_MOTION_DDOT":0},{"OBJECT_NAME":"ZHANGHENG 1-01 (CSES-1)","OBJECT_ID":"2018-015C","EPOCH":"2026-03-06T07:12:00.469152","MEAN_MOTION":15.20941164,"ECCENTRICITY":0.00147852,"INCLINATION":97.675,"RA_OF_ASC_NODE":228.9685,"ARG_OF_PERICENTER":257.0709,"MEAN_ANOMALY":102.8875,"EPHEMERIS_TYPE":0,"CLASSIFICATION_TYPE":"U","NORAD_CAT_ID":43194,"ELEMENT_SET_NO":999,"REV_AT_EPOCH":44900,"BSTAR":0.00046047541,"MEAN_MOTION_DOT":0.00010155,"MEAN_MOTION_DDOT":0},{"OBJECT_NAME":"SALSAT","OBJECT_ID":"2020-068K","EPOCH":"2026-03-05T22:34:33.397248","MEAN_MOTION":15.28092628,"ECCENTRICITY":0.00085381,"INCLINATION":97.8854,"RA_OF_ASC_NODE":61.8531,"ARG_OF_PERICENTER":312.583,"MEAN_ANOMALY":47.4688,"EPHEMERIS_TYPE":0,"CLASSIFICATION_TYPE":"U","NORAD_CAT_ID":46495,"ELEMENT_SET_NO":999,"REV_AT_EPOCH":29958,"BSTAR":0.00040601098,"MEAN_MOTION_DOT":0.00011056,"MEAN_MOTION_DDOT":0},{"OBJECT_NAME":"IXPE","OBJECT_ID":"2021-121A","EPOCH":"2026-03-06T06:00:02.000160","MEAN_MOTION":15.09161981,"ECCENTRICITY":0.00070322,"INCLINATION":0.231,"RA_OF_ASC_NODE":15.1117,"ARG_OF_PERICENTER":320.4138,"MEAN_ANOMALY":207.4371,"EPHEMERIS_TYPE":0,"CLASSIFICATION_TYPE":"U","NORAD_CAT_ID":49954,"ELEMENT_SET_NO":999,"REV_AT_EPOCH":588,"BSTAR":0.00085266814,"MEAN_MOTION_DOT":0.00014892,"MEAN_MOTION_DDOT":0}]
