OCO 2                   
1 40059U 14035A   26065.28821115  .00000818  00000+0  19169-3 0  9993
2 40059  98.2094   8.1845 0001192  91.7097 268.4238 14.57088392621069
BRITE-PL2 (HEWELIUSZ)   
1 40119U 14049B   26065.25774360  .00003850  00000+0  36435-3 0  9995
2 40119  97.8984 176.5682 0015608  91.8548 268.4459 14.94161298626076
MMS 1                   
1 40482U 15011A   26065.33334491 -.00001909  00000+0  00000+0 0  9993
2 40482  70.7905 350.2010 8416437 165.2537 247.4435  0.28337049  1333
MMS 2                   
1 40483U 15011B   26065.33334491 -.00001909  00000+0  00000+0 0  9994
2 40483  70.7908 350.2031 8417167 165.2598 247.4271  0.28337051  1339
MMS 3                   
1 40484U 15011C   26065.33334491 -.00001909  00000+0  00000+0 0  9995
2 40484  70.7931 350.2078 8416452 165.2540 247.4355  0.28337022  1331
MMS 4                   
1 40485U 15011D   26065.33334491 -.00001908  00000+0  00000+0 0  9995
2 40485  70.7912 350.2029 8415953 165.2613 247.4212  0.28337020  1333
ASTROSAT                
1 40930U 15052A   26064.95433736  .00002317  00000+0  20124-3 0  9991
2 40930   5.9957 178.3166 0008111 356.4882   3.5189 14.82285248564489
DAMPE                   
1 41173U 15078A   26065.26984493  .00003060  00000+0  10618-3 0  9998
2 41173  97.4579  70.2428 0013878  81.8694 278.4120 15.30486777568804
PISAT                   
1 41784U 16059B   26065.01020352  .00001344  00000+0  23710-3 0  9994
2 41784  97.8190  69.9116 0029248 172.3554 187.8104 14.68761988504594
HXMT (HUIYAN)           
1 42758U 17034A   26065.28898038  .00006983  00000+0  34990-3 0  9999
2 42758  43.0152  35.5784 0032559 215.2219 144.6477 15.17406206482022
FLYING LAPTOP           
1 42831U 17042G   26065.31036488  .00003389  00000+0  27262-3 0  9998
2 42831  97.4264 225.1346 0018832 106.3478 253.9819 15.00488681471028
ZHANGHENG 1-01 (CSES-1) 
1 43194U 18015C   26065.30000543  .00010155  00000+0  46048-3 0  9996
2 43194  97.6750 228.9685 0014785 257.0709 102.8875 15.20941164449003
SALSAT                  
1 46495U 20068K   26064.94066432  .00011056  00000+0  40601-3 0  9992
2 46495  97.8854  61.8531 0008538 312.5830  47.4688 15.28092628299584
IXPE                    
1 49954U 21121A   26065.25002315  .00014892  00000+0  85267-3 0  9999
2 49954   0.2310  15.1117 0007032 320.4138 207.4371 15.09161981  5884
